OBJECT_NAME,OBJECT_ID,EPOCH,MEAN_MOTION,ECCENTRICITY,INCLINATION,RA_OF_ASC_NODE,ARG_OF_PERICENTER,MEAN_ANOMALY,EPHEMERIS_TYPE,CLASSIFICATION_TYPE,NORAD_CAT_ID,ELEMENT_SET_NO,REV_AT_EPOCH,BSTAR,MEAN_MOTION_DOT,MEAN_MOTION_DDOT
ONEWEB-0336,2021-083S,2026-06-03T11:17:32.648064,13.13469084,.00022622,87.8931,322.9611,104.1417,255.9963,0,U,49202,999,22911,.22439905E-3,.95E-6,0
ONEWEB-0337,2021-083T,2026-06-03T13:21:40.175136,13.13469609,.00019156,87.8941,322.9494,98.0765,262.0581,0,U,49203,999,22912,-.8459681E-5,.1E-6,0
ONEWEB-0338,2021-083U,2026-06-03T07:53:55.604256,13.20769572,.00016204,87.9176,277.2121,101.5792,258.5524,0,U,49204,999,23498,.11908436E-4,.18E-6,0
ONEWEB-0339,2021-083V,2026-06-03T11:44:21.112800,13.13469495,.00015246,87.8942,322.9552,94.9599,265.1704,0,U,49205,999,22909,-.68429254E-3,-.237E-5,0
ONEWEB-0340,2021-083W,2026-06-03T13:14:20.746464,13.18687028,.00019795,87.9167,338.1685,91.2351,268.9008,0,U,49206,999,22817,.3004598E-4,.25E-6,0
ONEWEB-0341,2021-083X,2026-06-03T13:24:03.633696,13.18686210,.00019704,87.9160,338.1715,105.3370,254.7980,0,U,49207,999,22819,.20207896E-4,.21E-6,0
ONEWEB-0342,2021-083Y,2026-06-03T08:03:38.495808,13.20772307,.00018456,87.9188,277.1976,104.1918,255.9420,0,U,49208,999,23495,-.1041955E-3,-.29E-6,0
ONEWEB-0343,2021-083Z,2026-06-03T13:36:12.485952,13.18685813,.00014547,87.9166,338.1683,96.9904,263.1393,0,U,49209,999,22824,-.11499851E-3,-.32E-6,0
ONEWEB-0344,2021-083AA,2026-06-03T11:37:03.097632,13.13471038,.00019241,87.8933,322.9715,104.7778,255.3564,0,U,49210,999,22909,-.45575509E-3,-.154E-5,0
ONEWEB-0345,2021-083AB,2026-06-03T11:24:51.223968,13.13469997,.00018586,87.8953,322.9519,103.1089,257.0248,0,U,49211,999,22910,.17304432E-3,.76E-6,0
ONEWEB-0346,2021-083AC,2026-06-03T13:31:20.705376,13.18685883,.00021917,87.9180,338.1734,75.5763,284.5612,0,U,49212,999,22818,.24055843E-3,.108E-5,0
ONEWEB-0348,2021-083AD,2026-06-03T07:49:05.125728,13.20771282,.0002561,87.9184,277.2026,108.6657,251.4755,0,U,49213,999,23498,.56253955E-4,.36E-6,0
ONEWEB-0350,2021-083AE,2026-06-03T11:40:50.125728,13.12983196,.00018155,87.8948,322.9521,103.5731,256.5600,0,U,49214,999,22913,-.31713757E-1,-.11472E-3,0
ONEWEB-0351,2021-083AF,2026-06-03T07:39:10.577952,13.20772866,.00014988,87.9189,277.2027,130.1504,229.9761,0,U,49215,999,23494,.78849015E-4,.45E-6,0
ONEWEB-0352,2021-083AG,2026-06-03T12:59:56.046624,13.13469378,.00012701,87.8952,322.9515,95.1394,264.9880,0,U,49216,999,22923,.67696976E-3,.26E-5,0
ONEWEB-0354,2021-083AH,2026-06-03T06:29:06.981216,13.20772468,.0002249,87.9186,277.2117,106.0501,254.0880,0,U,49217,999,23497,.13815018E-3,.69E-6,0
ONEWEB-0355,2021-083AJ,2026-06-03T11:51:51.916896,13.13469330,.0001676,87.8938,322.9618,99.6073,260.5246,0,U,49218,999,22910,-.84054E-3,-.294E-5,0
ONEWEB-0357,2021-083AK,2026-06-03T08:13:21.242208,13.20771960,.00017785,87.9188,277.1919,107.7333,252.3995,0,U,49219,999,23498,-.98512529E-4,-.27E-6,0
ONEWEB-0332,2021-090A,2026-06-03T10:35:29.033664,13.14503845,.00016503,87.8953,292.4495,101.7490,258.3825,0,U,49279,999,22577,.4439859E-3,.177E-5,0
ONEWEB-0347,2021-090B,2026-06-03T07:58:47.783136,13.20773270,.00017078,87.9185,277.2016,95.3613,264.7715,0,U,49280,999,22921,-.27051537E-4,.2E-7,0
ONEWEB-0349,2021-090C,2026-06-03T06:55:46.595136,13.20770699,.00019344,87.9198,277.2095,109.6932,250.4410,0,U,49281,999,22799,.30112581E-3,.135E-5,0
ONEWEB-0353,2021-090D,2026-06-02T19:47:12.314112,13.14502367,.00016588,87.8955,292.5676,93.2829,266.8490,0,U,49282,999,22569,.29298203E-3,.121E-5,0
ONEWEB-0356,2021-090E,2026-06-03T06:53:21.738624,13.20772877,.00024545,87.9186,277.2046,83.4772,276.6641,0,U,49283,999,22799,.23552326E-3,.109E-5,0
ONEWEB-0358,2021-090F,2026-06-03T07:35:45.057408,13.20769438,.00021497,87.9187,277.2030,102.2172,257.9203,0,U,49284,999,22872,-.12918674E-3,-.4E-6,0
ONEWEB-0359,2021-090G,2026-06-03T07:32:08.613312,13.20771870,.00021702,87.9190,277.1989,105.6379,254.4994,0,U,49285,999,22870,.11544416E-4,.18E-6,0
ONEWEB-0360,2021-090H,2026-06-03T07:17:34.432800,13.20773324,.00019676,87.9196,277.2069,102.8838,257.2515,0,U,49286,999,22801,-.11454856E-3,-.34E-6,0
ONEWEB-0361,2021-090J,2026-06-03T06:50:54.196800,13.20770187,.00020004,87.9195,277.2087,102.4580,257.6777,0,U,49287,999,22846,.18378958E-3,.88E-6,0
ONEWEB-0362,2021-090K,2026-06-03T10:54:18.129600,13.19727023,.00017096,87.9158,307.7150,103.2694,256.8629,0,U,49288,999,22510,.60782097E-4,.37E-6,0
ONEWEB-0363,2021-090L,2026-06-03T07:12:43.172352,13.20774667,.00019971,87.9227,277.2022,101.1794,258.9564,0,U,49289,999,22847,.45808957E-3,.199E-5,0
ONEWEB-0364,2021-090M,2026-06-03T08:08:29.039136,13.20770035,.00021014,87.9172,277.2067,108.7781,251.3581,0,U,49290,999,22961,.19455411E-3,.92E-6,0
