ONEWEB-0336             
1 49202U 21083S   26154.47051676  .00000095  00000+0  22440-3 0  9993
2 49202  87.8931 322.9611 0002262 104.1417 255.9963 13.13469084229112
ONEWEB-0337             
1 49203U 21083T   26154.55671499  .00000010  00000+0 -84597-5 0  9995
2 49203  87.8941 322.9494 0001915  98.0765 262.0581 13.13469609229123
ONEWEB-0338             
1 49204U 21083U   26154.32911579  .00000018  00000+0  11908-4 0  9999
2 49204  87.9176 277.2121 0001620 101.5792 258.5524 13.20769572234984
ONEWEB-0339             
1 49205U 21083V   26154.48913325 -.00000237  00000+0 -68429-3 0  9992
2 49205  87.8942 322.9552 0001524  94.9599 265.1704 13.13469495229097
ONEWEB-0340             
1 49206U 21083W   26154.55162901  .00000025  00000+0  30046-4 0  9995
2 49206  87.9167 338.1685 0001979  91.2351 268.9008 13.18687028228179
ONEWEB-0341             
1 49207U 21083X   26154.55837539  .00000021  00000+0  20208-4 0  9997
2 49207  87.9160 338.1715 0001970 105.3370 254.7980 13.18686210228192
ONEWEB-0342             
1 49208U 21083Y   26154.33586222 -.00000029  00000+0 -10420-3 0  9998
2 49208  87.9188 277.1976 0001845 104.1918 255.9420 13.20772307234959
ONEWEB-0343             
1 49209U 21083Z   26154.56681118 -.00000032  00000+0 -11500-3 0  9998
2 49209  87.9166 338.1683 0001454  96.9904 263.1393 13.18685813228245
ONEWEB-0344             
1 49210U 21083AA  26154.48406363 -.00000154  00000+0 -45576-3 0  9993
2 49210  87.8933 322.9715 0001924 104.7778 255.3564 13.13471038229098
ONEWEB-0345             
1 49211U 21083AB  26154.47559287  .00000076  00000+0  17304-3 0  9996
2 49211  87.8953 322.9519 0001858 103.1089 257.0248 13.13469997229108
ONEWEB-0346             
1 49212U 21083AC  26154.56343409  .00000108  00000+0  24056-3 0  9992
2 49212  87.9180 338.1734 0002191  75.5763 284.5612 13.18685883228188
ONEWEB-0348             
1 49213U 21083AD  26154.32575377  .00000036  00000+0  56254-4 0  9994
2 49213  87.9184 277.2026 0002561 108.6657 251.4755 13.20771282234989
ONEWEB-0350             
1 49214U 21083AE  26154.48669127 -.00011472  00000+0 -31714-1 0  9998
2 49214  87.8948 322.9521 0001815 103.5731 256.5600 13.12983196229139
ONEWEB-0351             
1 49215U 21083AF  26154.31887243  .00000045  00000+0  78849-4 0  9997
2 49215  87.9189 277.2027 0001498 130.1504 229.9761 13.20772866234948
ONEWEB-0352             
1 49216U 21083AG  26154.54162091  .00000260  00000+0  67697-3 0  9997
2 49216  87.8952 322.9515 0001270  95.1394 264.9880 13.13469378229231
ONEWEB-0354             
1 49217U 21083AH  26154.27021969  .00000069  00000+0  13815-3 0  9996
2 49217  87.9186 277.2117 0002249 106.0501 254.0880 13.20772468234973
ONEWEB-0355             
1 49218U 21083AJ  26154.49435089 -.00000294  00000+0 -84054-3 0  9998
2 49218  87.8938 322.9618 0001676  99.6073 260.5246 13.13469330229106
ONEWEB-0357             
1 49219U 21083AK  26154.34260697 -.00000027  00000+0 -98513-4 0  9994
2 49219  87.9188 277.1919 0001778 107.7333 252.3995 13.20771960234988
ONEWEB-0332             
1 49279U 21090A   26154.44130826  .00000177  00000+0  44399-3 0  9995
2 49279  87.8953 292.4495 0001650 101.7490 258.3825 13.14503845225772
ONEWEB-0347             
1 49280U 21090B   26154.33249749  .00000002  00000+0 -27052-4 0  9996
2 49280  87.9185 277.2016 0001707  95.3613 264.7715 13.20773270229210
ONEWEB-0349             
1 49281U 21090C   26154.28873374  .00000135  00000+0  30113-3 0  9995
2 49281  87.9198 277.2095 0001934 109.6932 250.4410 13.20770699227996
ONEWEB-0353             
1 49282U 21090D   26153.82444808  .00000121  00000+0  29298-3 0  9998
2 49282  87.8955 292.5676 0001658  93.2829 266.8490 13.14502367225690
ONEWEB-0356             
1 49283U 21090E   26154.28705716  .00000109  00000+0  23552-3 0  9991
2 49283  87.9186 277.2046 0002454  83.4772 276.6641 13.20772877227996
ONEWEB-0358             
1 49284U 21090F   26154.31649372 -.00000040  00000+0 -12919-3 0  9992
2 49284  87.9187 277.2030 0002149 102.2172 257.9203 13.20769438228723
ONEWEB-0359             
1 49285U 21090G   26154.31398858  .00000018  00000+0  11544-4 0  9990
2 49285  87.9190 277.1989 0002170 105.6379 254.4994 13.20771870228700
ONEWEB-0360             
1 49286U 21090H   26154.30387075 -.00000034  00000+0 -11455-3 0  9999
2 49286  87.9196 277.2069 0001967 102.8838 257.2515 13.20773324228019
ONEWEB-0361             
1 49287U 21090J   26154.28534950  .00000088  00000+0  18379-3 0  9992
2 49287  87.9195 277.2087 0002000 102.4580 257.6777 13.20770187228465
ONEWEB-0362             
1 49288U 21090K   26154.45437650  .00000037  00000+0  60782-4 0  9991
2 49288  87.9158 307.7150 0001709 103.2694 256.8629 13.19727023225109
ONEWEB-0363             
1 49289U 21090L   26154.30049968  .00000199  00000+0  45809-3 0  9998
2 49289  87.9227 277.2022 0001997 101.1794 258.9564 13.20774667228475
ONEWEB-0364             
1 49290U 21090M   26154.33922499  .00000092  00000+0  19455-3 0  9992
2 49290  87.9172 277.2067 0002101 108.7781 251.3581 13.20770035229610
